[{"OBJECT_NAME":"KUIPER-00261","OBJECT_ID":"2025-301AB","EPOCH":"2026-03-09T22:00:01.999584","MEAN_MOTION":14.84563292,"ECCENTRICITY":0.00102753,"INCLINATION":51.9001,"RA_OF_ASC_NODE":69.3185,"ARG_OF_PERICENTER":68.6185,"MEAN_ANOMALY":64.2752,"EPHEMERIS_TYPE":0,"CLASSIFICATION_TYPE":"U","NORAD_CAT_ID":67158,"ELEMENT_SET_NO":999,"REV_AT_EPOCH":496,"BSTAR":-0.0036247241,"MEAN_MOTION_DOT":-0.00031011,"MEAN_MOTION_DDOT":0},{"OBJECT_NAME":"UNKNOWN","OBJECT_ID":"","EPOCH":"2026-03-08T20:59:50.260128","MEAN_MOTION":14.86306977,"ECCENTRICITY":0.0007146,"INCLINATION":98.387,"RA_OF_ASC_NODE":301.9193,"ARG_OF_PERICENTER":210.7655,"MEAN_ANOMALY":149.3141,"EPHEMERIS_TYPE":0,"CLASSIFICATION_TYPE":"U","NORAD_CAT_ID":89184,"ELEMENT_SET_NO":999,"REV_AT_EPOCH":50494,"BSTAR":0.004564,"MEAN_MOTION_DOT":0.00040365,"MEAN_MOTION_DDOT":0}]
